{"type": "FeatureCollection", "features": [ {"type": "Feature", "properties": {"norad_id": 37216, "name": "COSMO-SKYMED 4", "group": "resource", "lat": 72.79801433995391, "lon": 152.4434190729599, "alt_km": 614.5807301613604, "timestamp": "2025-12-23T20:42:36.729305+00:00", "meta": {"OBJECT_NAME": "COSMO-SKYMED 4", "OBJECT_ID": "2010-060A", "EPOCH": "2025-12-23T07:24:45.434016", "MEAN_MOTION": 14.82154612, "ECCENTRICITY": 0.00013793, "INCLINATION": 97.88, "RA_OF_ASC_NODE": 178.4726, "ARG_OF_PERICENTER": 80.881, "MEAN_ANOMALY": 279.2559, "EPHEMERIS_TYPE": 0, "CLASSIFICATION_TYPE": "U", "NORAD_CAT_ID": 37216, "ELEMENT_SET_NO": 999, "REV_AT_EPOCH": 81851, "BSTAR": -2.289091e-06, "MEAN_MOTION_DOT": -7e-07, "MEAN_MOTION_DDOT": 0}, "tle": {"line1": "1 37216U 10060A   25357.30885919 -.00000070  00000+0 -22891-5 0  9996", "line2": "2 37216  97.8800 178.4726 0001379  80.8810 279.2559 14.82154612818519"}}, "geometry": {"type": "Point", "coordinates": [152.4434190729599, 72.79801433995391]}}, {"type": "Feature", "properties": {"norad_id": 37387, "name": "RESOURCESAT-2", "group": "resource", "lat": 40.232360734546845, "lon": -111.11747362765743, "alt_km": 819.3177002915945, "timestamp": "2025-12-23T20:42:36.729316+00:00", "meta": {"OBJECT_NAME": "RESOURCESAT-2", "OBJECT_ID": "2011-015A", "EPOCH": "2025-12-23T01:28:38.314848", "MEAN_MOTION": 14.216012, "ECCENTRICITY": 0.00059354, "INCLINATION": 98.7862, "RA_OF_ASC_NODE": 60.5664, "ARG_OF_PERICENTER": 14.45, "MEAN_ANOMALY": 345.6845, "EPHEMERIS_TYPE": 0, "CLASSIFICATION_TYPE": "U", "NORAD_CAT_ID": 37387, "ELEMENT_SET_NO": 999, "REV_AT_EPOCH": 76115, "BSTAR": 8.7816171e-05, "MEAN_MOTION_DOT": 1.48e-06, "MEAN_MOTION_DDOT": 0}, "tle": {"line1": "1 37387U 11015A   25357.06155457  .00000148  00000+0  87816-4 0  9997", "line2": "2 37387  98.7862  60.5664 0005935  14.4500 345.6845 14.21601200761155"}}, "geometry": {"type": "Point", "coordinates": [-111.11747362765743, 40.232360734546845]}}, {"type": "Feature", "properties": {"norad_id": 37781, "name": "HAIYANG-2A", "group": "resource", "lat": -78.23153881999053, "lon": 50.78340667307597, "alt_km": 976.3453033471142, "timestamp": "2025-12-23T20:42:36.729326+00:00", "meta": {"OBJECT_NAME": "HAIYANG-2A", "OBJECT_ID": "2011-043A", "EPOCH": "2025-12-23T07:10:44.904576", "MEAN_MOTION": 13.78836069, "ECCENTRICITY": 0.00016053, "INCLINATION": 99.3372, "RA_OF_ASC_NODE": 358.0707, "ARG_OF_PERICENTER": 69.7013, "MEAN_ANOMALY": 290.4311, "EPHEMERIS_TYPE": 0, "CLASSIFICATION_TYPE": "U", "NORAD_CAT_ID": 37781, "ELEMENT_SET_NO": 999, "REV_AT_EPOCH": 72244, "BSTAR": 0.00010694831, "MEAN_MOTION_DOT": 6.5e-07, "MEAN_MOTION_DDOT": 0}, "tle": {"line1": "1 37781U 11043A   25357.29913084  .00000065  00000+0  10695-3 0  9997", "line2": "2 37781  99.3372 358.0707 0001605  69.7013 290.4311 13.78836069722449"}}, "geometry": {"type": "Point", "coordinates": [50.78340667307597, -78.23153881999053]}}, {"type": "Feature", "properties": {"norad_id": 37791, "name": "RASAT", "group": "resource", "lat": -5.099482968435372, "lon": 87.68071797875429, "alt_km": 659.201813616939, "timestamp": "2025-12-23T20:42:36.729337+00:00", "meta": {"OBJECT_NAME": "RASAT", "OBJECT_ID": "2011-044D", "EPOCH": "2025-12-23T06:23:25.154304", "MEAN_MOTION": 14.67922953, "ECCENTRICITY": 0.00213873, "INCLINATION": 98.0649, "RA_OF_ASC_NODE": 86.368, "ARG_OF_PERICENTER": 33.2587, "MEAN_ANOMALY": 50.6749, "EPHEMERIS_TYPE": 0, "CLASSIFICATION_TYPE": "U", "NORAD_CAT_ID": 37791, "ELEMENT_SET_NO": 999, "REV_AT_EPOCH": 76737, "BSTAR": 0.00010019095, "MEAN_MOTION_DOT": 5.26e-06, "MEAN_MOTION_DDOT": 0}, "tle": {"line1": "1 37791U 11044D   25357.26626336  .00000526  00000+0  10019-3 0  9999", "line2": "2 37791  98.0649  86.3680 0021387  33.2587  50.6749 14.67922953767374"}}, "geometry": {"type": "Point", "coordinates": [87.68071797875429, -5.099482968435372]}}, {"type": "Feature", "properties": {"norad_id": 37841, "name": "SRMSAT", "group": "resource", "lat": -6.322505061340267, "lon": -121.60332029532974, "alt_km": 857.4272569712284, "timestamp": "2025-12-23T20:42:36.729348+00:00", "meta": {"OBJECT_NAME": "SRMSAT", "OBJECT_ID": "2011-058D", "EPOCH": "2025-12-23T04:41:09.936096", "MEAN_MOTION": 14.1151481, "ECCENTRICITY": 0.00119884, "INCLINATION": 19.9729, "RA_OF_ASC_NODE": 44.6728, "ARG_OF_PERICENTER": 67.9566, "MEAN_ANOMALY": 330.6291, "EPHEMERIS_TYPE": 0, "CLASSIFICATION_TYPE": "U", "NORAD_CAT_ID": 37841, "ELEMENT_SET_NO": 999, "REV_AT_EPOCH": 73292, "BSTAR": 8.3003529e-05, "MEAN_MOTION_DOT": 4.18e-06, "MEAN_MOTION_DDOT": 0}, "tle": {"line1": "1 37841U 11058D   25357.19525389  .00000418  00000+0  83004-4 0  9993", "line2": "2 37841  19.9729  44.6728 0011988  67.9566 330.6291 14.11514810732922"}}, "geometry": {"type": "Point", "coordinates": [-121.60332029532974, -6.322505061340267]}}, {"type": "Feature", "properties": {"norad_id": 38012, "name": "PLEIADES 1A", "group": "resource", "lat": 42.91356922455049, "lon": -101.85370069493995, "alt_km": 693.8891304848212, "timestamp": "2025-12-23T20:42:36.729358+00:00", "meta": {"OBJECT_NAME": "PLEIADES 1A", "OBJECT_ID": "2011-076F", "EPOCH": "2025-12-23T07:19:25.686624", "MEAN_MOTION": 14.58570344, "ECCENTRICITY": 0.00011073, "INCLINATION": 98.1814, "RA_OF_ASC_NODE": 69.9108, "ARG_OF_PERICENTER": 74.9554, "MEAN_ANOMALY": 14.4725, "EPHEMERIS_TYPE": 0, "CLASSIFICATION_TYPE": "U", "NORAD_CAT_ID": 38012, "ELEMENT_SET_NO": 999, "REV_AT_EPOCH": 74635, "BSTAR": 8.9013882e-05, "MEAN_MOTION_DOT": 3.68e-06, "MEAN_MOTION_DDOT": 0}, "tle": {"line1": "1 38012U 11076F   25357.30515841  .00000368  00000+0  89014-4 0  9990", "line2": "2 38012  98.1814  69.9108 0001107  74.9554  14.4725 14.58570344746352"}}, "geometry": {"type": "Point", "coordinates": [-101.85370069493995, 42.91356922455049]}}, {"type": "Feature", "properties": {"norad_id": 38038, "name": "ZIYUAN 1-02C (ZY 1-02C)", "group": "resource", "lat": -56.36334802074209, "lon": 76.55390875806125, "alt_km": 777.3045236193666, "timestamp": "2025-12-23T20:42:36.729369+00:00", "meta": {"OBJECT_NAME": "ZIYUAN 1-02C (ZY 1-02C)", "OBJECT_ID": "2011-079A", "EPOCH": "2025-12-23T08:01:42.813120", "MEAN_MOTION": 14.38023173, "ECCENTRICITY": 0.00075206, "INCLINATION": 98.4321, "RA_OF_ASC_NODE": 63.1528, "ARG_OF_PERICENTER": 110.7939, "MEAN_ANOMALY": 338.0833, "EPHEMERIS_TYPE": 0, "CLASSIFICATION_TYPE": "U", "NORAD_CAT_ID": 38038, "ELEMENT_SET_NO": 999, "REV_AT_EPOCH": 73393, "BSTAR": 0.00017187506, "MEAN_MOTION_DOT": 4.77e-06, "MEAN_MOTION_DDOT": 0}, "tle": {"line1": "1 38038U 11079A   25357.33452330  .00000477  00000+0  17188-3 0  9990", "line2": "2 38038  98.4321  63.1528 0007520 110.7939 338.0833 14.38023173733935"}}, "geometry": {"type": "Point", "coordinates": [76.55390875806125, -56.36334802074209]}}, {"type": "Feature", "properties": {"norad_id": 38338, "name": "ARIRANG-3 (KOMPSAT-3)", "group": "resource", "lat": 19.605237108506874, "lon": 135.52981525023168, "alt_km": 690.2817623391029, "timestamp": "2025-12-23T20:42:36.729379+00:00", "meta": {"OBJECT_NAME": "ARIRANG-3 (KOMPSAT-3)", "OBJECT_ID": "2012-025B", "EPOCH": "2025-12-23T06:50:13.081632", "MEAN_MOTION": 14.61725691, "ECCENTRICITY": 0.00047595, "INCLINATION": 98.3338, "RA_OF_ASC_NODE": 311.9545, "ARG_OF_PERICENTER": 301.2847, "MEAN_ANOMALY": 58.7887, "EPHEMERIS_TYPE": 0, "CLASSIFICATION_TYPE": "U", "NORAD_CAT_ID": 38338, "ELEMENT_SET_NO": 999, "REV_AT_EPOCH": 72564, "BSTAR": 0.00011453598, "MEAN_MOTION_DOT": 5.22e-06, "MEAN_MOTION_DDOT": 0}, "tle": {"line1": "1 38338U 12025B   25357.28487363  .00000522  00000+0  11454-3 0  9994", "line2": "2 38338  98.3338 311.9545 0004759 301.2847  58.7887 14.61725691725648"}}, "geometry": {"type": "Point", "coordinates": [135.52981525023168, 19.605237108506874]}}, {"type": "Feature", "properties": {"norad_id": 38709, "name": "EXACTVIEW-1 (ADS-1B)", "group": "resource", "lat": 52.47090366527736, "lon": -61.656191082083, "alt_km": 810.9303445265004, "timestamp": "2025-12-23T20:42:36.729389+00:00", "meta": {"OBJECT_NAME": "EXACTVIEW-1 (ADS-1B)", "OBJECT_ID": "2012-039C", "EPOCH": "2025-12-23T04:57:03.171744", "MEAN_MOTION": 14.24911902, "ECCENTRICITY": 0.00101818, "INCLINATION": 98.9637, "RA_OF_ASC_NODE": 105.816, "ARG_OF_PERICENTER": 322.8874, "MEAN_ANOMALY": 37.16, "EPHEMERIS_TYPE": 0, "CLASSIFICATION_TYPE": "U", "NORAD_CAT_ID": 38709, "ELEMENT_SET_NO": 999, "REV_AT_EPOCH": 69764, "BSTAR": 7.5796241e-05, "MEAN_MOTION_DOT": 1.31e-06, "MEAN_MOTION_DDOT": 0}, "tle": {"line1": "1 38709U 12039C   25357.20628671  .00000131  00000+0  75796-4 0  9998", "line2": "2 38709  98.9637 105.8160 0010181 322.8874  37.1600 14.24911902697649"}}, "geometry": {"type": "Point", "coordinates": [-61.656191082083, 52.47090366527736]}}, {"type": "Feature", "properties": {"norad_id": 38755, "name": "SPOT 6", "group": "resource", "lat": 58.84093422200336, "lon": 48.72155008228909, "alt_km": 691.3263032589648, "timestamp": "2025-12-23T20:42:36.729400+00:00", "meta": {"OBJECT_NAME": "SPOT 6", "OBJECT_ID": "2012-047A", "EPOCH": "2025-12-23T07:15:55.052064", "MEAN_MOTION": 14.5854129, "ECCENTRICITY": 0.00012787, "INCLINATION": 98.156, "RA_OF_ASC_NODE": 61.8923, "ARG_OF_PERICENTER": 78.1597, "MEAN_ANOMALY": 281.9745, "EPHEMERIS_TYPE": 0, "CLASSIFICATION_TYPE": "U", "NORAD_CAT_ID": 38755, "ELEMENT_SET_NO": 999, "REV_AT_EPOCH": 70741, "BSTAR": 0.0001063697, "MEAN_MOTION_DOT": 4.49e-06, "MEAN_MOTION_DDOT": 0}, "tle": {"line1": "1 38755U 12047A   25357.30272051  .00000449  00000+0  10637-3 0  9990", "line2": "2 38755  98.1560  61.8923 0001278  78.1597 281.9745 14.58541290707417"}}, "geometry": {"type": "Point", "coordinates": [48.72155008228909, 58.84093422200336]}}]}